TDRS 3                  
1 19548U 88091B   22219.23660737 -.00000298  00000+0  00000+0 0  9991
2 19548  13.6781 350.9130 0033219 329.6187  31.5855  1.00274416111230
HST                     
1 20580U 90037B   22219.37252920  .00001243  00000+0  62274-4 0  9994
2 20580  28.4687 191.3614 0002465 219.6425 269.0577 15.10731652574196
TDRS 5                  
1 21639U 91054B   22218.62129392  .00000084  00000+0  00000+0 0  9999
2 21639  14.2336   4.2471 0024036   5.3006   1.6823  1.00267105113578
TDRS 6                  
1 22314U 93003B   22218.79324028 -.00000295  00000+0  00000+0 0  9992
2 22314  14.1338   7.4949 0011827 124.2467  63.2316  1.00277451108267
TDRS 7                  
1 23613U 95035B   22219.39007896 -.00000202  00000+0  00000+0 0  9998
2 23613  13.9579 358.1827 0028115  57.5898 125.3450  1.00274608 99011
ISS (ZARYA)             
1 25544U 98067A   22219.51910109  .00004869  00000+0  92412-4 0  9990
2 25544  51.6439  82.3006 0005301  94.1370 341.8257 15.50259882353143
LANDSAT 7               
1 25682U 99020A   22219.42809336  .00000106  00000+0  31504-4 0  9997
2 25682  97.9756 265.5673 0001185  77.4005 282.7330 14.59780444240007
TERRA                   
1 25994U 99068A   22219.42529112  .00000148  00000+0  42638-4 0  9992
2 25994  98.1344 290.1708 0001665  94.5834 321.8497 14.57132458204042
TDRS 8                  
1 26388U 00034A   22219.00604858 -.00000236  00000+0  00000+0 0  9991
2 26388  10.4446  42.1999 0019798 352.6152  12.2421  1.00271051 81031
TIMED                   
1 26998U 01055B   22218.84469933  .00000422  00000+0  49154-4 0  9990
2 26998  74.0722 179.2483 0001071 306.1413  53.9668 14.88737352120502
TDRS 9                  
1 27389U 02011A   22219.01785484 -.00000290  00000+0  00000+0 0  9996
2 27389   9.1240  60.3548 0022432 301.7620 257.5890  1.00273761 76292
AQUA                    
1 27424U 02022A   22219.44772507  .00000272  00000+0  70253-4 0  9998
2 27424  98.2488 160.8610 0002036  79.1813  29.9808 14.57346632 77654
TDRS 10                 
1 27566U 02055A   22219.36654071  .00000086  00000+0  00000+0 0  9998
2 27566   8.2927  49.6812 0007167 354.5318 232.5691  1.00267322 72095
SORCE                   
1 27651U 03004A   22218.66966751  .00000500  00000+0  64789-4 0  9991
2 27651  39.9956 297.0795 0022006 106.4318 253.8892 14.90018536 60567
AURA                    
1 28376U 04026A   22218.83102121  .00000261  00000+0  67949-4 0  9998
2 28376  98.2105 161.4464 0001541  84.3992 275.7382 14.57105574960564
SWIFT                   
1 28485U 04047A   22218.62639804  .00002245  00000+0  11694-3 0  9991
2 28485  20.5572 318.1091 0010381 213.7752 146.2021 15.06663762971121
THEMIS A                
1 30580U 07004A   22219.24094310 -.00000571  00000+0 -18804-1 0  9992
2 30580  13.9596 340.4095 8381354 175.6834 207.1707  0.87836169 53574
THEMIS D                
1 30797U 07004D   22219.08661031 -.00000385  00000+0  00000+0 0  9993
2 30797   9.7708 329.8121 8340225 189.3928 169.6527  0.87838310 53090
THEMIS E                
1 30798U 07004E   22219.15427778 -.00000394  00000+0  00000+0 0  9990
2 30798  10.6594 343.2086 8328601 178.1224 180.6169  0.87841795 53517
AIM                     
1 31304U 07015A   22219.21719195  .00004236  00000+0  21004-3 0  9999
2 31304  97.8526 140.3333 0004457 179.7267 180.3969 15.18308452838895
FGRST (GLAST)           
1 33053U 08029A   22219.30953555  .00001053  00000+0  42383-4 0  9996
2 33053  25.5815 180.3597 0012238  50.9249 309.2374 15.12304098781625
WISE                    
1 36119U 09071A   22219.08207634  .00004032  00000+0  12435-3 0  9999
2 36119  97.2371 252.5050 0003966 111.7259 248.4406 15.34149144703284
TDRS 11                 
1 39070U 13004A   22219.12637367  .00000085  00000+0  00000+0 0  9999
2 39070   2.8855 347.4803 0006516  78.4785 120.7420  1.00273374 34847
TDRS 12                 
1 39504U 14004A   22218.79419947 -.00000262  00000+0  00000+0 0  9994
2 39504   3.8171 348.1576 0004380 133.4206  78.3965  1.00280734 30131
GPM-CORE                
1 39574U 14009C   22219.54042883  .00012857  00000+0  18931-3 0  9999
2 39574  65.0022  14.3962 0009770 273.9568  86.0461 15.55686287479562
MMS 1                   
1 40482U 15011A   22217.95502315 -.00001890  00000+0  00000+0 0  9997
2 40482  31.5957 101.8737 8734213  56.2444 122.1821  0.28434821 13430
MMS 2                   
1 40483U 15011B   22217.95537037 -.00001890  00000+0  00000+0 0  9997
2 40483  31.5856 101.8510 8734362  56.2623 122.2059  0.28430095 13413
MMS 3                   
1 40484U 15011C   22217.95695602 -.00001890  00000+0  00000+0 0  9991
2 40484  31.5927 101.8896 8734186  56.2287 122.4020  0.28434828 13418
MMS 4                   
1 40485U 15011D   22217.95741898 -.00001890  00000+0  00000+0 0  9991
2 40485  31.5843 101.8546 8733602  56.2661 122.3948  0.28430110 13414
TDRS 13                 
1 42915U 17047A   22219.23057795 -.00000092  00000+0  00000+0 0  9994
2 42915   4.4070 333.9204 0019222 121.2783 292.0583  1.00271641 18248
JPSS-1                  
1 43013U 17073A   22219.46537386  .00000013  00000+0  27043-4 0  9990
2 43013  98.7172 157.2260 0000745  75.1909 284.9350 14.19564508244461
